start=new Date('2022-01-02T00:00:00.000Z').valueOf();
sats=[{"NORAD_CAT_ID":"46542","TLE_LINE2":"2 46542  53.0533 195.8206 0002270  83.7374 276.3874 15.06388294 69206","MEAN_ANOMALY":"276.3874","GP_ID":"192894849","CENTER_NAME":"EARTH","ARG_OF_PERICENTER":"83.7374","CLASSIFICATION_TYPE":"U","MEAN_MOTION_DDOT":"0.0000000000000","EPOCH":"2022-01-01T17:56:38.418432","OBJECT_ID":"2020-070L","MEAN_MOTION":"15.06388294","TIME_SYSTEM":"UTC","BSTAR":"0.00005875000000","PERIOD":"95.593","ELEMENT_SET_NO":"999","RCS_SIZE":"LARGE","REF_FRAME":"TEME","INCLINATION":"53.0533","OBJECT_TYPE":"PAYLOAD","COUNTRY_CODE":"US","APOAPSIS":"548.821","DECAY_DATE":null,"SEMIMAJOR_AXIS":"6925.384","FILE":"3255246","TLE_LINE1":"1 46542U 20070L   22001.74766688  .00000593  00000-0  58750-4 0  9993","EPHEMERIS_TYPE":"0","RA_OF_ASC_NODE":"195.8206","PERIAPSIS":"545.677","REV_AT_EPOCH":"6920","MEAN_MOTION_DOT":"0.00000593","OBJECT_NAME":"STARLINK-1692","SITE":"AFETR","MEAN_ELEMENT_THEORY":"SGP4","LAUNCH_DATE":"2020-10-06","ECCENTRICITY":"0.00022700"},{"LAUNCH_DATE":"2020-10-06","ECCENTRICITY":"0.00021060","OBJECT_NAME":"STARLINK-1693","MEAN_ELEMENT_THEORY":"SGP4","SITE":"AFETR","EPHEMERIS_TYPE":"0","TLE_LINE1":"1 46543U 20070M   22001.86561000 -.00000631  00000-0 -23452-4 0  9994","MEAN_MOTION_DOT":"-0.00000631","REV_AT_EPOCH":"6922","PERIAPSIS":"545.777","RA_OF_ASC_NODE":"195.2815","DECAY_DATE":null,"APOAPSIS":"548.694","COUNTRY_CODE":"US","OBJECT_TYPE":"PAYLOAD","FILE":"3255246","SEMIMAJOR_AXIS":"6925.370","RCS_SIZE":"LARGE","ELEMENT_SET_NO":"999","INCLINATION":"53.0534","REF_FRAME":"TEME","MEAN_MOTION":"15.06392930","BSTAR":"-0.00002345200000","PERIOD":"95.593","TIME_SYSTEM":"UTC","CLASSIFICATION_TYPE":"U","OBJECT_ID":"2020-070M","EPOCH":"2022-01-01T20:46:28.704000","MEAN_MOTION_DDOT":"0.0000000000000","MEAN_ANOMALY":"276.7625","TLE_LINE2":"2 46543  53.0534 195.2815 0002106  83.3604 276.7625 15.06392930 69220","NORAD_CAT_ID":"46543","ARG_OF_PERICENTER":"83.3604","CENTER_NAME":"EARTH","GP_ID":"192893597"},{"MEAN_MOTION":"15.06410260","TIME_SYSTEM":"UTC","PERIOD":"95.591","BSTAR":"0.00013844000000","RCS_SIZE":"LARGE","ELEMENT_SET_NO":"999","INCLINATION":"53.0544","REF_FRAME":"TEME","TLE_LINE2":"2 46544  53.0544 180.3063 0002107  83.7265 276.3964 15.06410260 69432","MEAN_ANOMALY":"276.3964","NORAD_CAT_ID":"46544","ARG_OF_PERICENTER":"83.7265","GP_ID":"192893847","CENTER_NAME":"EARTH","CLASSIFICATION_TYPE":"U","OBJECT_ID":"2020-070N","MEAN_MOTION_DDOT":"0.0000000000000","EPOCH":"2022-01-01T20:40:30.298656","OBJECT_NAME":"STARLINK-1694","MEAN_ELEMENT_THEORY":"SGP4","SITE":"AFETR","LAUNCH_DATE":"2020-10-06","ECCENTRICITY":"0.00021070","DECAY_DATE":null,"OBJECT_TYPE":"PAYLOAD","APOAPSIS":"548.641","COUNTRY_CODE":"US","FILE":"3255246","SEMIMAJOR_AXIS":"6925.317","EPHEMERIS_TYPE":"0","TLE_LINE1":"1 46544U 20070N   22001.86146179  .00001781  00000-0  13844-3 0  9999","PERIAPSIS":"545.723","REV_AT_EPOCH":"6943","MEAN_MOTION_DOT":"0.00001781","RA_OF_ASC_NODE":"180.3063"},{"CLASSIFICATION_TYPE":"U","MEAN_MOTION_DDOT":"0.0000000000000","EPOCH":"2022-01-01T18:28:28.926336","OBJECT_ID":"2020-070P","NORAD_CAT_ID":"46545","TLE_LINE2":"2 46545  53.0542 195.7278 0002206  81.9669 278.1570 15.06393094 69200","MEAN_ANOMALY":"278.1570","GP_ID":"192894599","CENTER_NAME":"EARTH","ARG_OF_PERICENTER":"81.9669","ELEMENT_SET_NO":"999","RCS_SIZE":"LARGE","REF_FRAME":"TEME","INCLINATION":"53.0542","MEAN_MOTION":"15.06393094","TIME_SYSTEM":"UTC","BSTAR":"0.00006592700000","PERIOD":"95.593","TLE_LINE1":"1 46545U 20070P   22001.76977924  .00000700  00000-0  65927-4 0  9999","EPHEMERIS_TYPE":"0","RA_OF_ASC_NODE":"195.7278","PERIAPSIS":"545.707","REV_AT_EPOCH":"6920","MEAN_MOTION_DOT":"0.00000700","OBJECT_TYPE":"PAYLOAD","APOAPSIS":"548.762","COUNTRY_CODE":"US","DECAY_DATE":null,"SEMIMAJOR_AXIS":"6925.370","FILE":"3255246","LAUNCH_DATE":"2020-10-06","ECCENTRICITY":"0.00022060","OBJECT_NAME":"STARLINK-1696","SITE":"AFETR","MEAN_ELEMENT_THEORY":"SGP4"},{"INCLINATION":"53.0535","REF_FRAME":"TEME","RCS_SIZE":"LARGE","ELEMENT_SET_NO":"999","BSTAR":"-0.00004374600000","PERIOD":"95.593","TIME_SYSTEM":"UTC","MEAN_MOTION":"15.06389919","OBJECT_ID":"2020-070Q","EPOCH":"2022-01-01T14:56:10.340160","MEAN_MOTION_DDOT":"0.0000000000000","CLASSIFICATION_TYPE":"U","ARG_OF_PERICENTER":"78.5014","CENTER_NAME":"EARTH","GP_ID":"192894350","MEAN_ANOMALY":"281.6221","TLE_LINE2":"2 46546  53.0535 196.3746 0002194  78.5014 281.6221 15.06389919 69182","NORAD_CAT_ID":"46546","ECCENTRICITY":"0.00021940","LAUNCH_DATE":"2020-10-06","MEAN_ELEMENT_THEORY":"SGP4","SITE":"AFETR","OBJECT_NAME":"STARLINK-1697","MEAN_MOTION_DOT":"-0.00000933","REV_AT_EPOCH":"6918","PERIAPSIS":"545.725","RA_OF_ASC_NODE":"196.3746","EPHEMERIS_TYPE":"0","TLE_LINE1":"1 46546U 20070Q   22001.62234190 -.00000933  00000-0 -43746-4 0  9991","FILE":"3255246","SEMIMAJOR_AXIS":"6925.379","DECAY_DATE":null,"APOAPSIS":"548.764","COUNTRY_CODE":"US","OBJECT_TYPE":"PAYLOAD"},{"MEAN_ELEMENT_THEORY":"SGP4","SITE":"AFETR","OBJECT_NAME":"STARLINK-1698","ECCENTRICITY":"0.00020860","LAUNCH_DATE":"2020-10-06","FILE":"3255246","SEMIMAJOR_AXIS":"6925.380","DECAY_DATE":null,"OBJECT_TYPE":"PAYLOAD","COUNTRY_CODE":"US","APOAPSIS":"548.689","PERIAPSIS":"545.800","REV_AT_EPOCH":"6921","MEAN_MOTION_DOT":"-0.00000726","RA_OF_ASC_NODE":"195.6517","EPHEMERIS_TYPE":"0","TLE_LINE1":"1 46547U 20070R   22001.78453113 -.00000726  00000-0 -29855-4 0  9992","TIME_SYSTEM":"UTC","BSTAR":"-0.00002985500000","PERIOD":"95.593","MEAN_MOTION":"15.06389793","INCLINATION":"53.0532","REF_FRAME":"TEME","RCS_SIZE":"LARGE","ELEMENT_SET_NO":"999","ARG_OF_PERICENTER":"84.9381","GP_ID":"192893098","CENTER_NAME":"EARTH","TLE_LINE2":"2 46547  53.0532 195.6517 0002086  84.9381 275.1846 15.06389793 69211","MEAN_ANOMALY":"275.1846","NORAD_CAT_ID":"46547","OBJECT_ID":"2020-070R","MEAN_MOTION_DDOT":"0.0000000000000","EPOCH":"2022-01-01T18:49:43.489632","CLASSIFICATION_TYPE":"U"},{"MEAN_MOTION_DOT":"0.00001479","REV_AT_EPOCH":"6914","PERIAPSIS":"545.309","RA_OF_ASC_NODE":"197.6969","EPHEMERIS_TYPE":"0","TLE_LINE1":"1 46548U 20070S   22001.33114556  .00001479  00000-0  11820-3 0  9995","FILE":"3255244","SEMIMAJOR_AXIS":"6925.346","DECAY_DATE":null,"COUNTRY_CODE":"US","APOAPSIS":"549.113","OBJECT_TYPE":"PAYLOAD","ECCENTRICITY":"0.00027470","LAUNCH_DATE":"2020-10-06","MEAN_ELEMENT_THEORY":"SGP4","SITE":"AFETR","OBJECT_NAME":"STARLINK-1699","OBJECT_ID":"2020-070S","EPOCH":"2022-01-01T07:56:50.976384","MEAN_MOTION_DDOT":"0.0000000000000","CLASSIFICATION_TYPE":"U","ARG_OF_PERICENTER":"78.5762","CENTER_NAME":"EARTH","GP_ID":"192869431","MEAN_ANOMALY":"281.5536","TLE_LINE2":"2 46548  53.0528 197.6969 0002747  78.5762 281.5536 15.06400845 69147","NORAD_CAT_ID":"46548","INCLINATION":"53.0528","REF_FRAME":"TEME","RCS_SIZE":"LARGE","ELEMENT_SET_NO":"999","PERIOD":"95.592","BSTAR":"0.00011820000000","TIME_SYSTEM":"UTC","MEAN_MOTION":"15.06400845"},{"OBJECT_TYPE":"PAYLOAD","APOAPSIS":"548.863","COUNTRY_CODE":"US","DECAY_DATE":null,"SEMIMAJOR_AXIS":"6925.343","FILE":"3255246","TLE_LINE1":"1 46549U 20070T   22001.62601729  .00000967  00000-0  83805-4 0  9995","EPHEMERIS_TYPE":"0","RA_OF_ASC_NODE":"196.3646","REV_AT_EPOCH":"6918","PERIAPSIS":"545.554","MEAN_MOTION_DOT":"0.00000967","OBJECT_NAME":"STARLINK-1700","SITE":"AFETR","MEAN_ELEMENT_THEORY":"SGP4","LAUNCH_DATE":"2020-10-06","ECCENTRICITY":"0.00023890","NORAD_CAT_ID":"46549","TLE_LINE2":"2 46549  53.0525 196.3646 0002389  81.7148 278.4112 15.06401652 69185","MEAN_ANOMALY":"278.4112","GP_ID":"192894100","CENTER_NAME":"EARTH","ARG_OF_PERICENTER":"81.7148","CLASSIFICATION_TYPE":"U","MEAN_MOTION_DDOT":"0.0000000000000","EPOCH":"2022-01-01T15:01:27.893856","OBJECT_ID":"2020-070T","MEAN_MOTION":"15.06401652","TIME_SYSTEM":"UTC","PERIOD":"95.592","BSTAR":"0.00008380500000","ELEMENT_SET_NO":"999","RCS_SIZE":"LARGE","REF_FRAME":"TEME","INCLINATION":"53.0525"},{"DECAY_DATE":null,"APOAPSIS":"548.568","COUNTRY_CODE":"US","OBJECT_TYPE":"PAYLOAD","FILE":"3255246","SEMIMAJOR_AXIS":"6925.387","EPHEMERIS_TYPE":"0","TLE_LINE1":"1 46550U 20070U   22001.74398042  .00000423  00000-0  47306-4 0  9994","MEAN_MOTION_DOT":"0.00000423","REV_AT_EPOCH":"6920","PERIAPSIS":"545.937","RA_OF_ASC_NODE":"195.8348","OBJECT_NAME":"STARLINK-1701","MEAN_ELEMENT_THEORY":"SGP4","SITE":"AFETR","LAUNCH_DATE":"2020-10-06","ECCENTRICITY":"0.00018990","MEAN_ANOMALY":"279.8258","TLE_LINE2":"2 46550  53.0535 195.8348 0001899  80.2946 279.8258 15.06387305 69203","NORAD_CAT_ID":"46550","ARG_OF_PERICENTER":"80.2946","CENTER_NAME":"EARTH","GP_ID":"192894850","CLASSIFICATION_TYPE":"U","OBJECT_ID":"2020-070U","EPOCH":"2022-01-01T17:51:19.908288","MEAN_MOTION_DDOT":"0.0000000000000","MEAN_MOTION":"15.06387305","BSTAR":"0.00004730600000","PERIOD":"95.593","TIME_SYSTEM":"UTC","RCS_SIZE":"LARGE","ELEMENT_SET_NO":"999","INCLINATION":"53.0535","REF_FRAME":"TEME"},{"CLASSIFICATION_TYPE":"U","MEAN_MOTION_DDOT":"0.0000000000000","EPOCH":"2022-01-01T18:27:50.435136","OBJECT_ID":"2020-070W","NORAD_CAT_ID":"46552","TLE_LINE2":"2 46552  53.0530 180.7167 0002294  85.3471 274.7780 15.06389405 69422","MEAN_ANOMALY":"274.7780","GP_ID":"192893598","CENTER_NAME":"EARTH","ARG_OF_PERICENTER":"85.3471","ELEMENT_SET_NO":"999","RCS_SIZE":"LARGE","REF_FRAME":"TEME","INCLINATION":"53.0530","MEAN_MOTION":"15.06389405","TIME_SYSTEM":"UTC","PERIOD":"95.593","BSTAR":"0.00005737400000","TLE_LINE1":"1 46552U 20070W   22001.76933374  .00000573  00000-0  57374-4 0  9993","EPHEMERIS_TYPE":"0","RA_OF_ASC_NODE":"180.7167","REV_AT_EPOCH":"6942","PERIAPSIS":"545.657","MEAN_MOTION_DOT":"0.00000573","OBJECT_TYPE":"PAYLOAD","APOAPSIS":"548.835","COUNTRY_CODE":"US","DECAY_DATE":null,"SEMIMAJOR_AXIS":"6925.381","FILE":"3255246","LAUNCH_DATE":"2020-10-06","ECCENTRICITY":"0.00022940","OBJECT_NAME":"STARLINK-1649","SITE":"AFETR","MEAN_ELEMENT_THEORY":"SGP4"}];
